CCSDS_OMM_VERS = 2.0
CREATION_DATE  = 
ORIGINATOR     = 

OBJECT_NAME    = STARLINK-37091
OBJECT_ID      = 2026-050AA
CENTER_NAME    = EARTH
REF_FRAME      = TEME
TIME_SYSTEM    = UTC
MEAN_ELEMENT_THEORY = SGP/SGP4

EPOCH          = 2026-04-02T16:38:43.761984
MEAN_MOTION    = 15.81019765
ECCENTRICITY   = .0001162
INCLINATION    = 53.1580
RA_OF_ASC_NODE = 161.3244
ARG_OF_PERICENTER = 82.5479
MEAN_ANOMALY   = 277.5676

EPHEMERIS_TYPE = 0
CLASSIFICATION_TYPE = U
NORAD_CAT_ID   = 68191
ELEMENT_SET_NO = 999
REV_AT_EPOCH   = 427
BSTAR          = .13053E-2
MEAN_MOTION_DOT = .266841E-2
MEAN_MOTION_DDOT = 0

CCSDS_OMM_VERS = 2.0
CREATION_DATE  = 
ORIGINATOR     = 

OBJECT_NAME    = STARLINK-37098
OBJECT_ID      = 2026-050AB
CENTER_NAME    = EARTH
REF_FRAME      = TEME
TIME_SYSTEM    = UTC
MEAN_ELEMENT_THEORY = SGP/SGP4

EPOCH          = 2026-04-02T16:37:38.997408
MEAN_MOTION    = 15.81012987
ECCENTRICITY   = .0000973
INCLINATION    = 53.1581
RA_OF_ASC_NODE = 161.3192
ARG_OF_PERICENTER = 77.5727
MEAN_ANOMALY   = 282.5405

EPHEMERIS_TYPE = 0
CLASSIFICATION_TYPE = U
NORAD_CAT_ID   = 68192
ELEMENT_SET_NO = 999
REV_AT_EPOCH   = 427
BSTAR          = .13354E-2
MEAN_MOTION_DOT = .273126E-2
MEAN_MOTION_DDOT = 0

CCSDS_OMM_VERS = 2.0
CREATION_DATE  = 
ORIGINATOR     = 

OBJECT_NAME    = STARLINK-37090
OBJECT_ID      = 2026-050AC
CENTER_NAME    = EARTH
REF_FRAME      = TEME
TIME_SYSTEM    = UTC
MEAN_ELEMENT_THEORY = SGP/SGP4

EPOCH          = 2026-04-02T16:35:29.140800
MEAN_MOTION    = 15.81008710
ECCENTRICITY   = .0000858
INCLINATION    = 53.1579
RA_OF_ASC_NODE = 161.3079
ARG_OF_PERICENTER = 68.5826
MEAN_ANOMALY   = 291.5289

EPHEMERIS_TYPE = 0
CLASSIFICATION_TYPE = U
NORAD_CAT_ID   = 68193
ELEMENT_SET_NO = 999
REV_AT_EPOCH   = 427
BSTAR          = .125E-2
MEAN_MOTION_DOT = .255038E-2
MEAN_MOTION_DDOT = 0

CCSDS_OMM_VERS = 2.0
CREATION_DATE  = 
ORIGINATOR     = 

OBJECT_NAME    = STARLINK-37093
OBJECT_ID      = 2026-050AD
CENTER_NAME    = EARTH
REF_FRAME      = TEME
TIME_SYSTEM    = UTC
MEAN_ELEMENT_THEORY = SGP/SGP4

EPOCH          = 2026-04-02T16:40:53.445792
MEAN_MOTION    = 15.81020339
ECCENTRICITY   = .0001116
INCLINATION    = 53.1581
RA_OF_ASC_NODE = 161.3341
ARG_OF_PERICENTER = 87.7325
MEAN_ANOMALY   = 272.3826

EPHEMERIS_TYPE = 0
CLASSIFICATION_TYPE = U
NORAD_CAT_ID   = 68194
ELEMENT_SET_NO = 999
REV_AT_EPOCH   = 427
BSTAR          = .14559E-2
MEAN_MOTION_DOT = .298839E-2
MEAN_MOTION_DDOT = 0

CCSDS_OMM_VERS = 2.0
CREATION_DATE  = 
ORIGINATOR     = 

OBJECT_NAME    = STARLINK-37058
OBJECT_ID      = 2026-050AE
CENTER_NAME    = EARTH
REF_FRAME      = TEME
TIME_SYSTEM    = UTC
MEAN_ELEMENT_THEORY = SGP/SGP4

EPOCH          = 2026-04-02T16:36:33.743808
MEAN_MOTION    = 15.81048030
ECCENTRICITY   = .0001103
INCLINATION    = 53.1580
RA_OF_ASC_NODE = 161.3136
ARG_OF_PERICENTER = 89.5389
MEAN_ANOMALY   = 270.5760

EPHEMERIS_TYPE = 0
CLASSIFICATION_TYPE = U
NORAD_CAT_ID   = 68195
ELEMENT_SET_NO = 999
REV_AT_EPOCH   = 271
BSTAR          = .15912E-2
MEAN_MOTION_DOT = .328218E-2
MEAN_MOTION_DDOT = 0

CCSDS_OMM_VERS = 2.0
CREATION_DATE  = 
ORIGINATOR     = 

OBJECT_NAME    = YAOGAN-50 02
OBJECT_ID      = 2026-051A
CENTER_NAME    = EARTH
REF_FRAME      = TEME
TIME_SYSTEM    = UTC
MEAN_ELEMENT_THEORY = SGP/SGP4

EPOCH          = 2026-04-02T20:08:25.526976
MEAN_MOTION    = 13.83260391
ECCENTRICITY   = .0000728
INCLINATION    = 141.9862
RA_OF_ASC_NODE = 323.7159
ARG_OF_PERICENTER = 273.9342
MEAN_ANOMALY   = 86.1294

EPHEMERIS_TYPE = 0
CLASSIFICATION_TYPE = U
NORAD_CAT_ID   = 68196
ELEMENT_SET_NO = 999
REV_AT_EPOCH   = 255
BSTAR          = .72712E-4
MEAN_MOTION_DOT = .267E-5
MEAN_MOTION_DDOT = 0

CCSDS_OMM_VERS = 2.0
CREATION_DATE  = 
ORIGINATOR     = 

OBJECT_NAME    = CZ-6A R/B
OBJECT_ID      = 2026-051B
CENTER_NAME    = EARTH
REF_FRAME      = TEME
TIME_SYSTEM    = UTC
MEAN_ELEMENT_THEORY = SGP/SGP4

EPOCH          = 2026-04-02T15:28:55.860672
MEAN_MOTION    = 14.56380003
ECCENTRICITY   = .0187181
INCLINATION    = 142.0310
RA_OF_ASC_NODE = 332.7470
ARG_OF_PERICENTER = 223.6066
MEAN_ANOMALY   = 134.9730

EPHEMERIS_TYPE = 0
CLASSIFICATION_TYPE = U
NORAD_CAT_ID   = 68197
ELEMENT_SET_NO = 999
REV_AT_EPOCH   = 265
BSTAR          = .15884E-3
MEAN_MOTION_DOT = .1203E-4
MEAN_MOTION_DDOT = 0

CCSDS_OMM_VERS = 2.0
CREATION_DATE  = 
ORIGINATOR     = 

OBJECT_NAME    = 2026-052A
OBJECT_ID      = 2026-052A
CENTER_NAME    = EARTH
REF_FRAME      = TEME
TIME_SYSTEM    = UTC
MEAN_ELEMENT_THEORY = SGP/SGP4

EPOCH          = 2026-04-02T20:18:14.630688
MEAN_MOTION    = 15.10017479
ECCENTRICITY   = .0013493
INCLINATION    = 97.5360
RA_OF_ASC_NODE = 168.8115
ARG_OF_PERICENTER = 200.3948
MEAN_ANOMALY   = 159.6744

EPHEMERIS_TYPE = 0
CLASSIFICATION_TYPE = U
NORAD_CAT_ID   = 68198
ELEMENT_SET_NO = 999
REV_AT_EPOCH   = 267
BSTAR          = .69683E-3
MEAN_MOTION_DOT = .11297E-3
MEAN_MOTION_DDOT = 0

CCSDS_OMM_VERS = 2.0
CREATION_DATE  = 
ORIGINATOR     = 

OBJECT_NAME    = YUXING-3 06
OBJECT_ID      = 2026-052B
CENTER_NAME    = EARTH
REF_FRAME      = TEME
TIME_SYSTEM    = UTC
MEAN_ELEMENT_THEORY = SGP/SGP4

EPOCH          = 2026-04-02T17:04:47.140608
MEAN_MOTION    = 15.10161333
ECCENTRICITY   = .0012477
INCLINATION    = 97.5361
RA_OF_ASC_NODE = 168.6830
ARG_OF_PERICENTER = 202.1721
MEAN_ANOMALY   = 157.8970

EPHEMERIS_TYPE = 0
CLASSIFICATION_TYPE = U
NORAD_CAT_ID   = 68199
ELEMENT_SET_NO = 999
REV_AT_EPOCH   = 265
BSTAR          = .55221E-3
MEAN_MOTION_DOT = .8969E-4
MEAN_MOTION_DDOT = 0

CCSDS_OMM_VERS = 2.0
CREATION_DATE  = 
ORIGINATOR     = 

OBJECT_NAME    = 2026-052C
OBJECT_ID      = 2026-052C
CENTER_NAME    = EARTH
REF_FRAME      = TEME
TIME_SYSTEM    = UTC
MEAN_ELEMENT_THEORY = SGP/SGP4

EPOCH          = 2026-04-02T20:13:27.043968
MEAN_MOTION    = 15.10276793
ECCENTRICITY   = .0012183
INCLINATION    = 97.5358
RA_OF_ASC_NODE = 168.8167
ARG_OF_PERICENTER = 204.4688
MEAN_ANOMALY   = 155.5964

EPHEMERIS_TYPE = 0
CLASSIFICATION_TYPE = U
NORAD_CAT_ID   = 68200
ELEMENT_SET_NO = 999
REV_AT_EPOCH   = 266
BSTAR          = .40525E-3
MEAN_MOTION_DOT = .6583E-4
MEAN_MOTION_DDOT = 0

CCSDS_OMM_VERS = 2.0
CREATION_DATE  = 
ORIGINATOR     = 

OBJECT_NAME    = 2026-052D
OBJECT_ID      = 2026-052D
CENTER_NAME    = EARTH
REF_FRAME      = TEME
TIME_SYSTEM    = UTC
MEAN_ELEMENT_THEORY = SGP/SGP4

EPOCH          = 2026-04-02T20:10:21.342720
MEAN_MOTION    = 15.10513866
ECCENTRICITY   = .0011443
INCLINATION    = 97.5360
RA_OF_ASC_NODE = 168.8164
ARG_OF_PERICENTER = 201.1365
MEAN_ANOMALY   = 158.9393

EPHEMERIS_TYPE = 0
CLASSIFICATION_TYPE = U
NORAD_CAT_ID   = 68201
ELEMENT_SET_NO = 999
REV_AT_EPOCH   = 267
BSTAR          = .65467E-3
MEAN_MOTION_DOT = .10748E-3
MEAN_MOTION_DDOT = 0

CCSDS_OMM_VERS = 2.0
CREATION_DATE  = 
ORIGINATOR     = 

OBJECT_NAME    = 2026-052E
OBJECT_ID      = 2026-052E
CENTER_NAME    = EARTH
REF_FRAME      = TEME
TIME_SYSTEM    = UTC
MEAN_ELEMENT_THEORY = SGP/SGP4

EPOCH          = 2026-04-02T20:10:19.726176
MEAN_MOTION    = 15.10512727
ECCENTRICITY   = .0011206
INCLINATION    = 97.5364
RA_OF_ASC_NODE = 168.8177
ARG_OF_PERICENTER = 205.3203
MEAN_ANOMALY   = 154.7479

EPHEMERIS_TYPE = 0
CLASSIFICATION_TYPE = U
NORAD_CAT_ID   = 68202
ELEMENT_SET_NO = 999
REV_AT_EPOCH   = 267
BSTAR          = .64427E-3
MEAN_MOTION_DOT = .10575E-3
MEAN_MOTION_DDOT = 0

